FLOCK 4G-8              
1 62613U 25009E   26068.72381419  .00013559  00000+0  50438-3 0  9996
2 62613  97.4045 151.2834 0003050 315.2538  44.8455 15.27623414 63721
STARLINK-32758          
1 62744U 25014K   26068.26805976  .00018288  00000+0  67212-3 0  9997
2 62744  42.9949 160.1651 0000796 262.5243  97.5518 15.27595828 63150
